ONEWEB-0698             
1 61604U 24188L   26166.29522704  .00000147  00000+0  38027-3 0  9996
2 61604  87.8884  21.4577 0000842 117.1164 243.0050 13.11414337 84221
ONEWEB-0699             
1 61605U 24188M   26166.15386467  .00000240  00000+0  65100-3 0  9992
2 61605  87.8839  36.6713 0001549 103.5330 256.5970 13.10376126 83042
ONEWEB-0700             
1 61606U 24188N   26166.15552445  .00000375  00000+0  10392-2 0  9995
2 61606  87.8855  36.5795 0001943 103.3764 256.7581 13.10376322 83034
ONEWEB-0701             
1 61607U 24188P   26166.17212931  .00000630  00000+0  17676-2 0  9997
2 61607  87.8837  36.6666 0001562 110.6726 249.4569 13.10371937 83042
ONEWEB-0702             
1 61608U 24188Q   26166.11211885  .00000326  00000+0  88456-3 0  9996
2 61608  87.8904  21.3997 0001997 116.0706 244.0628 13.11420101 84212
ONEWEB-0704             
1 61609U 24188R   26166.16051060  .00000579  00000+0  16224-2 0  9992
2 61609  87.8844  36.6586 0002162 112.5557 247.5800 13.10374722 83023
ONEWEB-0705             
1 61610U 24188S   26166.16548589  .00000764  00000+0  21509-2 0  9999
2 61610  87.8845  36.6630 0002634  99.1568 260.9857 13.10378333 75194
ONEWEB-0706             
1 61611U 24188T   26166.15054032  .00000122  00000+0  31183-3 0  9992
2 61611  87.8838  36.6713 0002051  99.7105 260.4254 13.10376979 83116
ONEWEB-0707             
1 61612U 24188U   26166.15718649  .00000438  00000+0  12190-2 0  9990
2 61612  87.8843  36.6637 0001971  99.9049 260.2301 13.10375951 83050
ONEWEB-0708             
1 61613U 24188V   26166.17544920  .00000584  00000+0  16380-2 0  9999
2 61613  87.8831  36.6785 0002361  84.1160 276.0236 13.10371021 83030
