[{"OBJECT_NAME":"ONEWEB-0698","OBJECT_ID":"2024-188L","EPOCH":"2026-06-15T07:05:07.616256","MEAN_MOTION":13.11414337,"ECCENTRICITY":8.42e-05,"INCLINATION":87.8884,"RA_OF_ASC_NODE":21.4577,"ARG_OF_PERICENTER":117.1164,"MEAN_ANOMALY":243.005,"EPHEMERIS_TYPE":0,"CLASSIFICATION_TYPE":"U","NORAD_CAT_ID":61604,"ELEMENT_SET_NO":999,"REV_AT_EPOCH":8422,"BSTAR":0.00038027,"MEAN_MOTION_DOT":1.47e-06,"MEAN_MOTION_DDOT":0.0},{"OBJECT_NAME":"ONEWEB-0699","OBJECT_ID":"2024-188M","EPOCH":"2026-06-15T03:41:33.907488","MEAN_MOTION":13.10376126,"ECCENTRICITY":0.0001549,"INCLINATION":87.8839,"RA_OF_ASC_NODE":36.6713,"ARG_OF_PERICENTER":103.533,"MEAN_ANOMALY":256.597,"EPHEMERIS_TYPE":0,"CLASSIFICATION_TYPE":"U","NORAD_CAT_ID":61605,"ELEMENT_SET_NO":999,"REV_AT_EPOCH":8304,"BSTAR":0.000651,"MEAN_MOTION_DOT":2.4e-06,"MEAN_MOTION_DDOT":0.0},{"OBJECT_NAME":"ONEWEB-0700","OBJECT_ID":"2024-188N","EPOCH":"2026-06-15T03:43:57.312480","MEAN_MOTION":13.10376322,"ECCENTRICITY":0.0001943,"INCLINATION":87.8855,"RA_OF_ASC_NODE":36.5795,"ARG_OF_PERICENTER":103.3764,"MEAN_ANOMALY":256.7581,"EPHEMERIS_TYPE":0,"CLASSIFICATION_TYPE":"U","NORAD_CAT_ID":61606,"ELEMENT_SET_NO":999,"REV_AT_EPOCH":8303,"BSTAR":0.0010392,"MEAN_MOTION_DOT":3.75e-06,"MEAN_MOTION_DDOT":0.0},{"OBJECT_NAME":"ONEWEB-0701","OBJECT_ID":"2024-188P","EPOCH":"2026-06-15T04:07:51.972384","MEAN_MOTION":13.10371937,"ECCENTRICITY":0.0001562,"INCLINATION":87.8837,"RA_OF_ASC_NODE":36.6666,"ARG_OF_PERICENTER":110.6726,"MEAN_ANOMALY":249.4569,"EPHEMERIS_TYPE":0,"CLASSIFICATION_TYPE":"U","NORAD_CAT_ID":61607,"ELEMENT_SET_NO":999,"REV_AT_EPOCH":8304,"BSTAR":0.0017676,"MEAN_MOTION_DOT":6.3e-06,"MEAN_MOTION_DDOT":0.0},{"OBJECT_NAME":"ONEWEB-0702","OBJECT_ID":"2024-188Q","EPOCH":"2026-06-15T02:41:27.068640","MEAN_MOTION":13.11420101,"ECCENTRICITY":0.0001997,"INCLINATION":87.8904,"RA_OF_ASC_NODE":21.3997,"ARG_OF_PERICENTER":116.0706,"MEAN_ANOMALY":244.0628,"EPHEMERIS_TYPE":0,"CLASSIFICATION_TYPE":"U","NORAD_CAT_ID":61608,"ELEMENT_SET_NO":999,"REV_AT_EPOCH":8421,"BSTAR":0.0008845600000000001,"MEAN_MOTION_DOT":3.26e-06,"MEAN_MOTION_DDOT":0.0},{"OBJECT_NAME":"ONEWEB-0704","OBJECT_ID":"2024-188R","EPOCH":"2026-06-15T03:51:08.115840","MEAN_MOTION":13.10374722,"ECCENTRICITY":0.0002162,"INCLINATION":87.8844,"RA_OF_ASC_NODE":36.6586,"ARG_OF_PERICENTER":112.5557,"MEAN_ANOMALY":247.58,"EPHEMERIS_TYPE":0,"CLASSIFICATION_TYPE":"U","NORAD_CAT_ID":61609,"ELEMENT_SET_NO":999,"REV_AT_EPOCH":8302,"BSTAR":0.0016224,"MEAN_MOTION_DOT":5.79e-06,"MEAN_MOTION_DDOT":0.0},{"OBJECT_NAME":"ONEWEB-0705","OBJECT_ID":"2024-188S","EPOCH":"2026-06-15T03:58:17.980896","MEAN_MOTION":13.10378333,"ECCENTRICITY":0.0002634,"INCLINATION":87.8845,"RA_OF_ASC_NODE":36.663,"ARG_OF_PERICENTER":99.1568,"MEAN_ANOMALY":260.9857,"EPHEMERIS_TYPE":0,"CLASSIFICATION_TYPE":"U","NORAD_CAT_ID":61610,"ELEMENT_SET_NO":999,"REV_AT_EPOCH":7519,"BSTAR":0.0021509000000000003,"MEAN_MOTION_DOT":7.64e-06,"MEAN_MOTION_DDOT":0.0},{"OBJECT_NAME":"ONEWEB-0706","OBJECT_ID":"2024-188T","EPOCH":"2026-06-15T03:36:46.683648","MEAN_MOTION":13.10376979,"ECCENTRICITY":0.0002051,"INCLINATION":87.8838,"RA_OF_ASC_NODE":36.6713,"ARG_OF_PERICENTER":99.7105,"MEAN_ANOMALY":260.4254,"EPHEMERIS_TYPE":0,"CLASSIFICATION_TYPE":"U","NORAD_CAT_ID":61611,"ELEMENT_SET_NO":999,"REV_AT_EPOCH":8311,"BSTAR":0.00031183000000000003,"MEAN_MOTION_DOT":1.22e-06,"MEAN_MOTION_DDOT":0.0},{"OBJECT_NAME":"ONEWEB-0707","OBJECT_ID":"2024-188U","EPOCH":"2026-06-15T03:46:20.912736","MEAN_MOTION":13.10375951,"ECCENTRICITY":0.0001971,"INCLINATION":87.8843,"RA_OF_ASC_NODE":36.6637,"ARG_OF_PERICENTER":99.9049,"MEAN_ANOMALY":260.2301,"EPHEMERIS_TYPE":0,"CLASSIFICATION_TYPE":"U","NORAD_CAT_ID":61612,"ELEMENT_SET_NO":999,"REV_AT_EPOCH":8305,"BSTAR":0.001219,"MEAN_MOTION_DOT":4.38e-06,"MEAN_MOTION_DDOT":0.0},{"OBJECT_NAME":"ONEWEB-0708","OBJECT_ID":"2024-188V","EPOCH":"2026-06-15T04:12:38.810880","MEAN_MOTION":13.10371021,"ECCENTRICITY":0.0002361,"INCLINATION":87.8831,"RA_OF_ASC_NODE":36.6785,"ARG_OF_PERICENTER":84.116,"MEAN_ANOMALY":276.0236,"EPHEMERIS_TYPE":0,"CLASSIFICATION_TYPE":"U","NORAD_CAT_ID":61613,"ELEMENT_SET_NO":999,"REV_AT_EPOCH":8303,"BSTAR":0.0016380000000000001,"MEAN_MOTION_DOT":5.84e-06,"MEAN_MOTION_DDOT":0.0}]